CAPELLA-11 (ACADIA-1)   
1 57693U 23126A   26187.03312972  .00005728  00000+0  69946-3 0  9993
2 57693  53.0047 103.1095 0002435  78.0174 282.1078 14.84531045154925
CAPELLA-14 (ACADIA-4)   
1 59444U 24066C   26187.29793547  .00010992  00000+0  68712-3 0  9991
2 59444  45.6020 154.5604 0001524 162.6983 197.3955 15.09638403115372
CAPELLA-13 (ACADIA-3)   
1 60419U 24142A   26187.71635175  .00003593  00000+0  41674-3 0  9996
2 60419  53.0057 332.3225 0001284  90.7666 269.3461 14.87651011103314
CAPELLA-15 (ACADIA-5)   
1 60544U 24149CE  26187.83338755  .00002923  00000+0  29087-3 0  9999
2 60544  97.6764 260.2457 0003788  15.5111 344.6224 14.92388872102781
CAPELLA-17 (ACADIA-7)   
1 64583U 25135BH  26187.32448482  .00007013  00000+0  70475-3 0  9997
2 64583  97.7698 300.6634 0003780 289.5782  70.5028 14.91554920 56705
CAPELLA-16 (ACADIA-6)   
1 65318U 25188D   26187.71532992  .00004122  00000+0  39198-3 0  9990
2 65318  97.7376 262.5747 0005066 157.1281 203.0166 14.93988981 46838
CAPELLA-19 (ACADIA-9)   
1 67384U 26004X   26187.71791797  .00004095  00000+0  46714-3 0  9994
2 67384  97.8007 185.7383 0001499  86.3265 273.8122 14.86649414 26177
CAPELLA-18 (ACADIA-8)   
1 67385U 26004Y   26187.59333811  .00001242  00000+0  14593-3 0  9991
2 67385  97.8007 185.7689 0001578  83.1831 276.9565 14.86651871 26163
CAPELLA-20 (ACADIA-10)  
1 68485U 26067BX  26187.47827795  .00005137  00000+0  51504-3 0  9998
2 68485  97.7579 145.4643 0000865 161.7620 198.3630 14.91777400 14607
