{"fetched_at":"2026-07-07T07:58:24.686Z","source":"https://celestrak.org/NORAD/elements/gp.php?NAME=CAPELLA&FORMAT=JSON","constellation":"capella","records":[{"OBJECT_NAME":"CAPELLA-11 (ACADIA-1)","OBJECT_ID":"2023-126A","EPOCH":"2026-07-06T00:47:42.407808","CLASSIFICATION_TYPE":"U","MEAN_MOTION":14.84531045,"ECCENTRICITY":0.00024354,"INCLINATION":53.0047,"RA_OF_ASC_NODE":103.1095,"ARG_OF_PERICENTER":78.0174,"MEAN_ANOMALY":282.1078,"EPHEMERIS_TYPE":0,"NORAD_CAT_ID":57693,"ELEMENT_SET_NO":999,"REV_AT_EPOCH":15492,"BSTAR":0.00069946341,"MEAN_MOTION_DOT":0.00005728,"MEAN_MOTION_DDOT":0},{"OBJECT_NAME":"CAPELLA-14 (ACADIA-4)","OBJECT_ID":"2024-066C","EPOCH":"2026-07-06T07:09:01.624608","CLASSIFICATION_TYPE":"U","MEAN_MOTION":15.09638403,"ECCENTRICITY":0.0001524,"INCLINATION":45.602,"RA_OF_ASC_NODE":154.5604,"ARG_OF_PERICENTER":162.6983,"MEAN_ANOMALY":197.3955,"EPHEMERIS_TYPE":0,"NORAD_CAT_ID":59444,"ELEMENT_SET_NO":999,"REV_AT_EPOCH":11537,"BSTAR":0.00068712,"MEAN_MOTION_DOT":0.00010992,"MEAN_MOTION_DDOT":0},{"OBJECT_NAME":"CAPELLA-13 (ACADIA-3)","OBJECT_ID":"2024-142A","EPOCH":"2026-07-06T17:11:32.791200","CLASSIFICATION_TYPE":"U","MEAN_MOTION":14.87651011,"ECCENTRICITY":0.0001284,"INCLINATION":53.0057,"RA_OF_ASC_NODE":332.3225,"ARG_OF_PERICENTER":90.7666,"MEAN_ANOMALY":269.3461,"EPHEMERIS_TYPE":0,"NORAD_CAT_ID":60419,"ELEMENT_SET_NO":999,"REV_AT_EPOCH":10331,"BSTAR":0.00041674,"MEAN_MOTION_DOT":0.00003593,"MEAN_MOTION_DDOT":0},{"OBJECT_NAME":"CAPELLA-15 (ACADIA-5)","OBJECT_ID":"2024-149CE","EPOCH":"2026-07-06T20:00:04.684320","CLASSIFICATION_TYPE":"U","MEAN_MOTION":14.92388872,"ECCENTRICITY":0.0003788,"INCLINATION":97.6764,"RA_OF_ASC_NODE":260.2457,"ARG_OF_PERICENTER":15.5111,"MEAN_ANOMALY":344.6224,"EPHEMERIS_TYPE":0,"NORAD_CAT_ID":60544,"ELEMENT_SET_NO":999,"REV_AT_EPOCH":10278,"BSTAR":0.00029087,"MEAN_MOTION_DOT":0.00002923,"MEAN_MOTION_DDOT":0},{"OBJECT_NAME":"CAPELLA-17 (ACADIA-7)","OBJECT_ID":"2025-135BH","EPOCH":"2026-07-06T07:47:15.488448","CLASSIFICATION_TYPE":"U","MEAN_MOTION":14.9155492,"ECCENTRICITY":0.00037805,"INCLINATION":97.7698,"RA_OF_ASC_NODE":300.6634,"ARG_OF_PERICENTER":289.5782,"MEAN_ANOMALY":70.5028,"EPHEMERIS_TYPE":0,"NORAD_CAT_ID":64583,"ELEMENT_SET_NO":999,"REV_AT_EPOCH":5670,"BSTAR":0.00070474676,"MEAN_MOTION_DOT":0.00007013,"MEAN_MOTION_DDOT":0},{"OBJECT_NAME":"CAPELLA-16 (ACADIA-6)","OBJECT_ID":"2025-188D","EPOCH":"2026-07-06T17:10:04.505088","CLASSIFICATION_TYPE":"U","MEAN_MOTION":14.93988981,"ECCENTRICITY":0.0005066,"INCLINATION":97.7376,"RA_OF_ASC_NODE":262.5747,"ARG_OF_PERICENTER":157.1281,"MEAN_ANOMALY":203.0166,"EPHEMERIS_TYPE":0,"NORAD_CAT_ID":65318,"ELEMENT_SET_NO":999,"REV_AT_EPOCH":4683,"BSTAR":0.00039198,"MEAN_MOTION_DOT":0.00004122,"MEAN_MOTION_DDOT":0},{"OBJECT_NAME":"CAPELLA-19 (ACADIA-9)","OBJECT_ID":"2026-004X","EPOCH":"2026-07-06T17:13:48.112608","CLASSIFICATION_TYPE":"U","MEAN_MOTION":14.86649414,"ECCENTRICITY":0.0001499,"INCLINATION":97.8007,"RA_OF_ASC_NODE":185.7383,"ARG_OF_PERICENTER":86.3265,"MEAN_ANOMALY":273.8122,"EPHEMERIS_TYPE":0,"NORAD_CAT_ID":67384,"ELEMENT_SET_NO":999,"REV_AT_EPOCH":2617,"BSTAR":0.00046714,"MEAN_MOTION_DOT":0.00004095,"MEAN_MOTION_DDOT":0},{"OBJECT_NAME":"CAPELLA-18 (ACADIA-8)","OBJECT_ID":"2026-004Y","EPOCH":"2026-07-06T14:14:24.412704","CLASSIFICATION_TYPE":"U","MEAN_MOTION":14.86651871,"ECCENTRICITY":0.0001578,"INCLINATION":97.8007,"RA_OF_ASC_NODE":185.7689,"ARG_OF_PERICENTER":83.1831,"MEAN_ANOMALY":276.9565,"EPHEMERIS_TYPE":0,"NORAD_CAT_ID":67385,"ELEMENT_SET_NO":999,"REV_AT_EPOCH":2616,"BSTAR":0.00014593,"MEAN_MOTION_DOT":0.00001242,"MEAN_MOTION_DDOT":0},{"OBJECT_NAME":"CAPELLA-20 (ACADIA-10)","OBJECT_ID":"2026-067BX","EPOCH":"2026-07-06T11:28:43.214880","CLASSIFICATION_TYPE":"U","MEAN_MOTION":14.917774,"ECCENTRICITY":0.0000865,"INCLINATION":97.7579,"RA_OF_ASC_NODE":145.4643,"ARG_OF_PERICENTER":161.762,"MEAN_ANOMALY":198.363,"EPHEMERIS_TYPE":0,"NORAD_CAT_ID":68485,"ELEMENT_SET_NO":999,"REV_AT_EPOCH":1460,"BSTAR":0.00051504,"MEAN_MOTION_DOT":0.00005137,"MEAN_MOTION_DDOT":0}]}
